LEMUR-1                 
1 40044U 14033AL  22229.47489987  .00000739  00000+0  11454-3 0  9992
2 40044  97.6592  54.7224 0057412 322.7653  36.9582 14.74949766438873
LEMUR-2-XIAOQING        
1 41871U 16062C   22228.26857497  .00019788  00000+0  50105-3 0  9996
2 41871  51.6357  60.8437 0004053 158.3583 201.7574 15.39723786319160
LEMUR-2-SOKOLSKY        
1 41872U 16062D   22229.14627682  .00011440  00000+0  29388-3 0  9992
2 41872  51.6781  66.5699 0001223 271.2343  88.8502 15.39763398319269
LEMUR-2-ANUBHAVTHAKUR   
1 41873U 16062E   22228.85997356  .00005492  00000+0  20854-3 0  9997
2 41873  51.6813 111.4789 0008171 130.5265 229.6428 15.28343478318571
LEMUR-2-WINGO           
1 41874U 16062F   22228.60688890  .00017292  00000+0  45710-3 0  9990
2 41874  51.6483  69.8376 0009290  80.9467 279.2568 15.38471812319086
LEMUR-2-JOBANPUTRA      
1 41991U 17008AV  22228.12889731  .00012892  00000+0  39565-3 0  9997
2 41991  97.2545 288.4555 0006771  39.1019 321.0713 15.33849882305320
LEMUR-2-SPIRE-MINIONS   
1 41992U 17008AW  22229.40509573  .00016195  00000+0  43809-3 0  9999
2 41992  97.2633 294.2976 0005148  23.4979 336.6500 15.37769279305779
LEMUR-2-SATCHMO         
1 41993U 17008AX  22228.14199186  .00009898  00000+0  31514-3 0  9997
2 41993  97.2566 288.9469 0006653  37.2360 322.9343 15.32743593305354
LEMUR-2-SMITA-SHARAD    
1 41994U 17008AY  22228.41524017  .00015585  00000+0  42266-3 0  9999
2 41994  97.2625 293.0867 0005396  26.1710 333.9807 15.37697244305611
LEMUR-2-RDEATON         
1 41995U 17008AZ  22229.15720647  .00009432  00000+0  30065-3 0  9997
2 41995  97.2588 290.1665 0007655  44.3856 315.7998 15.32715281306197
LEMUR-2-TACHIKOMA       
1 41996U 17008BA  22229.41415147  .00015307  00000+0  42015-3 0  9999
2 41996  97.2664 294.3233 0006297  39.2113 320.9587 15.37322551305640
LEMUR-2-NOGUECORREIG    
1 41997U 17008BB  22228.45119485  .00016859  00000+0  45449-3 0  9996
2 41997  97.2646 293.8581 0006475  38.6565 321.5143 15.37860025305630
LEMUR-2-MIA-GRACE       
1 41998U 17008BC  22228.44285406  .00009940  00000+0  31855-3 0  9992
2 41998  97.2572 289.0509 0007669  48.2021 311.9875 15.32526012305305
LEMUR-2-ANGELA          
1 42752U 17019B   22229.41733042  .00019129  00000+0  41509-3 0  9992
2 42752  51.6344 302.1767 0006508 290.2591  69.7696 15.44384278290592
LEMUR-2-JENNYBARNA      
1 42753U 17019C   22229.38676814  .00043460  00000+0  61090-3 0  9994
2 42753  51.6279 273.1175 0005778 321.7029  38.3551 15.56229273290930
LEMUR-2-ROBMOORE        
1 42754U 17019D   22229.42293664  .00016009  00000+0  35730-3 0  9999
2 42754  51.6346 303.6658 0005894 292.7512  67.2851 15.43690274290555
LEMUR-2-SPIROVISION     
1 42755U 17019E   22229.22866155  .00041373  00000+0  59502-3 0  9994
2 42755  51.6319 274.6944 0005413 321.4328 146.7560 15.55633319290812
LEMUR-2-SHAINAJOHL      
1 42771U 17036G   22228.41723871  .00010801  00000+0  35361-3 0  9997
2 42771  97.1975 268.3375 0013151 102.9014 257.3698 15.31761269286167
LEMUR-2-XUENITERENCE    
1 42772U 17036H   22228.39030708  .00015399  00000+0  47991-3 0  9994
2 42772  97.1897 268.4662 0012464  99.8731 260.3919 15.33262136286203
LEMUR-2-LUCYBRYCE       
1 42773U 17036J   22229.09456719  .00009268  00000+0  32789-3 0  9994
2 42773  97.2008 269.1705 0013533 101.4863 258.7898 15.29279549286230
LEMUR-2-KUNGFOO         
1 42774U 17036K   22229.06104620  .00013652  00000+0  44148-3 0  9997
2 42774  97.1971 269.4163 0012555  99.0163 261.2501 15.32105187286283
LEMUR-2-LYNSEY-SYMO     
1 42779U 17036Q   22229.36906246  .00014660  00000+0  43097-3 0  9991
2 42779  97.1999 274.3115 0010655  98.2236 262.0216 15.35145356286581
LEMUR-2-LISASAURUS      
1 42780U 17036R   22229.35155228  .00014245  00000+0  46509-3 0  9998
2 42780  97.2004 270.8551 0011362 104.8441 255.4061 15.31802114286373
LEMUR-2-SAM-AMELIA      
1 42781U 17036S   22229.10173878  .00009411  00000+0  32540-3 0  9992
2 42781  97.2008 271.3310 0011991 104.2224 256.0350 15.30042010286354
LEMUR-2-MCPEAKE         
1 42782U 17036T   22229.05833435  .00012289  00000+0  38728-3 0  9990
2 42782  97.1982 272.2781 0010888 101.9740 258.2724 15.32976322286441
LEMUR-2-GREENBERG       
1 42837U 17042N   22229.15355523  .00002303  00000+0  22144-3 0  9997
2 42837  97.4228  83.4166 0013272 147.7418 212.4617 14.93862420277337
LEMUR-2-ANDIS           
1 42838U 17042P   22229.14978670  .00002446  00000+0  23478-3 0  9990
2 42838  97.4214  83.3528 0013400 147.5724 212.6322 14.93879321277338
LEMUR-2-MONSON          
1 42839U 17042Q   22229.11100989  .00001648  00000+0  16075-3 0  9996
2 42839  97.4227  83.0697 0013062 147.9409 212.2608 14.93652692277305
LEMUR-2-FURIAUS         
1 42840U 17042R   22228.83203140  .00001730  00000+0  17014-3 0  9995
2 42840  97.4263  83.1696 0013369 149.7092 210.4904 14.93257378277261
LEMUR-2-PETERG          
1 42841U 17042S   22229.39839037  .00001247  00000+0  12239-3 0  9995
2 42841  97.4285  84.8052 0012969 143.1517 217.0597 14.93798092277416
LEMUR-2-DEMBITZ         
1 42842U 17042T   22229.17194139  .00001824  00000+0  17544-3 0  9994
2 42842  97.4258  84.4558 0013019 144.6498 215.5588 14.94091942277385
LEMUR-2-ZACHARY         
1 42845U 17042W   22229.41552850  .00003318  00000+0  30971-3 0  9991
2 42845  97.4148  83.8491 0013343 144.4414 215.7699 14.94758940277463
LEMUR-2-MCCAFFERTY      
1 43123U 18004N   22228.45375160  .00021711  00000+0  58759-3 0  9991
2 43123  97.3744 308.0432 0007806 127.8021 232.3932 15.37678220255794
LEMUR-2-PETERWEBSTER    
1 43124U 18004P   22229.21244548  .00016791  00000+0  46412-3 0  9997
2 43124  97.3737 308.4286 0007968 125.5834 234.6154 15.37074909255889
LEMUR-2-BROWNCOW        
1 43125U 18004Q   22229.22756740  .00020465  00000+0  52669-3 0  9995
2 43125  97.3796 310.2654 0007563 121.4898 238.7087 15.39243950255988
LEMUR-2-DAVEWILSON      
1 43126U 18004R   22229.20429841  .00019114  00000+0  48561-3 0  9998
2 43126  97.3777 310.0617 0007502 120.5971 239.6015 15.39654483255977
LEMUR-2-MARSHALL        
1 43165U 18010C   22228.75075607  .00015450  00000+0  51617-3 0  9999
2 43165  82.9152   9.2086 0026460 117.2522 243.1420 15.30545302253702
LEMUR-2-TALLHAMN-ATC    
1 43167U 18010E   22229.13816404  .00012262  00000+0  46238-3 0  9993
2 43167  82.9190  15.1929 0021520 139.4655 220.8192 15.26703929253370
LEMUR-2-JIN-LUEN        
1 43182U 18014C   22229.19086221  .00002467  00000+0  20552-3 0  9993
2 43182  97.6375 131.8643 0013004  99.3311 260.9384 14.99483741247990
LEMUR-2-URAMCHANSOL     
1 43183U 18014D   22229.20260991  .00003510  00000+0  29042-3 0  9997
2 43183  97.6393 132.0870 0015121  99.9841 260.3090 14.99453573248003
LEMUR-2-KADI            
1 43184U 18014E   22228.71883617  .00002370  00000+0  19996-3 0  9999
2 43184  97.6395 131.4849 0013610  97.9342 262.3426 14.99030200247923
LEMUR-2-THENICKMOLO     
1 43185U 18014F   22229.28332126  .00003891  00000+0  32319-3 0  9990
2 43185  97.6432 132.2638 0016021  96.4612 263.8436 14.99233944248012
LEMUR-2-VU              
1 43558U 18046E   22228.96381397  .00031359  00000+0  55061-3 0  9996
2 43558  51.6359 227.0676 0004912 276.8892  83.1538 15.50229889228924
LEMUR-2-ALEXANDER       
1 43559U 18046F   22229.20589480  .00035561  00000+0  59344-3 0  9995
2 43559  51.6362 223.4657 0004523 297.1673  62.8855 15.51602215228777
LEMUR-2-YUASA           
1 43560U 18046G   22229.18058558  .00032369  00000+0  55882-3 0  9997
2 43560  51.6373 226.2708 0005021 303.9561  56.0950 15.50691239228959
LEMUR-2-TOMHENDERSON    
1 43561U 18046H   22229.18383722  .00028825  00000+0  54340-3 0  9992
2 43561  51.6376 229.9971 0005193 296.9335  63.1122 15.48244136228468
LEMUR-2-ZUPANSKI        
1 43695U 18088F   22229.16547602  .00008992  00000+0  30829-3 0  9992
2 43695  85.0258 272.9205 0010451 268.6854  91.3195 15.29967402209154
LEMUR-2-CHANUSIAK       
1 43697U 18088H   22229.41337090  .00008682  00000+0  28782-3 0  9991
2 43697  85.0324 272.7586 0009974 238.3905 121.6369 15.31052542209343
LEMUR-2-ORZULAK         
1 43731U 18096N   22229.20880649  .00032539  00000+0  63828-3 0  9997
2 43731  97.3621 315.0312 0013304 183.8037 176.3114 15.47189396207638
LEMUR-2-KOBYSZCZE       
1 43732U 18096P   22229.32681183  .00036496  00000+0  70556-3 0  9995
2 43732  97.3635 315.6228 0013342 180.2799 179.8446 15.47587071207676
LEMUR-2-DULY            
1 43745U 18096AC  22229.23982032  .00027762  00000+0  56922-3 0  9993
2 43745  97.3627 315.1642 0014088 180.4903 179.6335 15.45919330207651
LEMUR-2-VLADIMIR        
1 43746U 18096AD  22228.67750129  .00041415  00000+0  74846-3 0  9997
2 43746  97.3615 315.4251 0012727 184.9299 175.1829 15.49506060207647
LEMUR-2-CHRISTINAHOLT   
1 43882U 18111G   22229.30433698  .00003465  00000+0  28451-3 0  9990
2 43882  97.6704 136.0146 0013906  98.7439 261.5360 14.99774074196887
LEMUR-2-TINYKEV         
1 43883U 18111H   22228.69959602  .00004980  00000+0  40436-3 0  9990
2 43883  97.6698 135.6084 0014395  98.4176 261.8680 14.99994817198805
LEMUR-2-REMY-COLTON     
1 43884U 18111J   22229.38766723  .00002810  00000+0  22935-3 0  9992
2 43884  97.6705 136.8173 0007937 128.9281 231.2651 15.00205485196937
LEMUR-2-GUSTAVO         
1 43885U 18111K   22229.22953601  .00004357  00000+0  35630-3 0  9993
2 43885  97.6698 136.2930 0015101 102.5988 257.6925 14.99778433196883
LEMUR-2-ZO              
1 43886U 18111L   22229.21855099  .00003771  00000+0  30859-3 0  9992
2 43886  97.6671 136.5651 0015197 112.0498 248.2341 14.99841840196897
LEMUR-2-NATALIEMURRAY   
1 43887U 18111M   22228.71022572  .00003347  00000+0  27335-3 0  9993
2 43887  97.6757 136.3767 0011618  89.3303 270.9252 15.00029537198837
LEMUR-2-SARAHBETTYBOO   
1 43888U 18111N   22229.20345687  .00003247  00000+0  26528-3 0  9996
2 43888  97.6682 137.1092 0011995 126.1550 234.0785 15.00034290198910
